     2              NAVIGATION DATA                         RINEX VERSION / TYPE
CCRINEXN V1.6.0 UX  CDDIS               16-SEP-20 00:26     PGM / RUN BY / DATE 
IGS BROADCAST EPHEMERIS FILE                                COMMENT             
    0.7451D-08  0.1490D-07 -0.5960D-07 -0.1192D-06          ION ALPHA           
    0.7987D+05  0.1638D+05 -0.1311D+06 -0.1311D+06          ION BETA            
    0.279396772385D-08 0.266453525910D-14   503808     2123 DELTA-UTC: A0,A1,T,W
    18                                                      LEAP SECONDS        
                                                            END OF HEADER       
 9 20  9 16  2  0  0.0-0.286633614451D-03-0.557065504836D-11 0.000000000000D+00
    0.880000000000D+02-0.165312500000D+02 0.448411535283D-08-0.118831268355D+01
   -0.806525349617D-06 0.176659459248D-02 0.139847397804D-04 0.515366259956D+04
    0.266400000000D+06-0.167638063431D-07 0.314091379670D+01 0.577419996262D-07
    0.953418228348D+00 0.110437500000D+03 0.175375378890D+01-0.792318717541D-08
    0.472162524607D-09 0.100000000000D+01 0.212300000000D+04 0.000000000000D+00
    0.200000000000D+01 0.000000000000D+00 0.139698386192D-08 0.880000000000D+02
    0.264277000000D+06 0.400000000000D+01 0.000000000000D+00 0.000000000000D+00
10 20  9 16  2  0  0.0-0.455694273114D-03-0.989075488178D-11 0.000000000000D+00
    0.910000000000D+02-0.115000000000D+03 0.444125642473D-08 0.495693700524D+00
   -0.600889325142D-05 0.587728107348D-02 0.584311783314D-05 0.515367342758D+04
    0.266400000000D+06-0.149011611938D-07 0.210748896041D+01 0.111758708954D-06
    0.966540733718D+00 0.271000000000D+03-0.265955570881D+01-0.829320258803D-08
   -0.340728478423D-09 0.100000000000D+01 0.212300000000D+04 0.000000000000D+00
    0.200000000000D+01 0.000000000000D+00 0.232830643654D-08 0.910000000000D+02
    0.259218000000D+06 0.400000000000D+01 0.000000000000D+00 0.000000000000D+00
11 20  9 16  2  0  0.0-0.163182150572D-03 0.105728759081D-10 0.000000000000D+00
    0.630000000000D+02 0.134000000000D+03 0.541629703908D-08 0.196916491533D+01
    0.696629285812D-05 0.159310938325D-01 0.547058880329D-05 0.515372166443D+04
    0.266400000000D+06 0.301748514175D-06 0.588453010081D+00 0.163912773132D-06
    0.913536398515D+00 0.242500000000D+03 0.204386919862D+01-0.847070998193D-08
    0.276082928534D-09 0.100000000000D+01 0.212300000000D+04 0.000000000000D+00
    0.200000000000D+01 0.000000000000D+00-0.121071934700D-07 0.630000000000D+02
    0.259251000000D+06 0.400000000000D+01 0.000000000000D+00 0.000000000000D+00
12 20  9 16  2  0  0.0 0.666687265039D-04-0.500222085975D-11 0.000000000000D+00
    0.590000000000D+02-0.570625000000D+02 0.438696844913D-08 0.111127598218D+01
   -0.301003456116D-05 0.790823018178D-02 0.895187258720D-05 0.515362782860D+04
    0.266400000000D+06-0.147148966789D-06-0.960686517387D+00-0.186264514923D-07
    0.976666657675D+00 0.217562500000D+03 0.116910064123D+01-0.806747890002D-08
   -0.800033324599D-09 0.100000000000D+01 0.212300000000D+04 0.000000000000D+00
    0.200000000000D+01 0.000000000000D+00-0.121071934700D-07 0.590000000000D+02
    0.259218000000D+06 0.400000000000D+01 0.000000000000D+00 0.000000000000D+00
13 20  9 16  2  0  0.0 0.456776469946D-04 0.363797880709D-11 0.000000000000D+00
    0.220000000000D+02-0.640625000000D+01 0.413195782691D-08-0.226637135523D+01
   -0.460073351860D-06 0.451461132616D-02 0.132210552692D-04 0.515369769287D+04
    0.266400000000D+06 0.104308128357D-06-0.299772560458D+01 0.372529029846D-08
    0.968438777762D+00 0.126187500000D+03 0.104537900115D+01-0.768424865123D-08
    0.594667627437D-09 0.100000000000D+01 0.212300000000D+04 0.000000000000D+00
    0.200000000000D+01 0.000000000000D+00-0.111758708954D-07 0.220000000000D+02
    0.259218000000D+06 0.400000000000D+01 0.000000000000D+00 0.000000000000D+00
15 20  9 16  2  0  0.0-0.203389674425D-03 0.261479726760D-11 0.000000000000D+00
    0.250000000000D+02-0.487187500000D+02 0.489020369661D-08-0.248800435418D+01
   -0.285357236862D-05 0.127711239038D-01 0.132638961077D-04 0.515375772476D+04
    0.266400000000D+06 0.195577740669D-06 0.304856322206D+01-0.117346644402D-06
    0.928981131267D+00 0.102718750000D+03 0.917755648824D+00-0.796104589523D-08
    0.411802867528D-09 0.100000000000D+01 0.212300000000D+04 0.000000000000D+00
    0.200000000000D+01 0.000000000000D+00-0.107102096081D-07 0.250000000000D+02
    0.259218000000D+06 0.400000000000D+01 0.000000000000D+00 0.000000000000D+00
16 20  9 16  2  0  0.0-0.209671910852D-03-0.511590769747D-11 0.000000000000D+00
    0.310000000000D+02-0.470000000000D+02 0.430339353933D-08-0.748605871719D+00
   -0.245496630669D-05 0.115553275682D-01 0.886060297489D-05 0.515356998825D+04
    0.266400000000D+06 0.165775418282D-06-0.941840089020D+00 0.232830643654D-06
    0.976868133679D+00 0.216968750000D+03 0.629291266496D+00-0.800140471920D-08
   -0.761103131572D-09 0.100000000000D+01 0.212300000000D+04 0.000000000000D+00
    0.200000000000D+01 0.000000000000D+00-0.107102096081D-07 0.310000000000D+02
    0.260172000000D+06 0.400000000000D+01 0.000000000000D+00 0.000000000000D+00
17 20  9 16  2  0  0.0 0.326518435031D-03 0.545696821064D-11 0.000000000000D+00
    0.860000000000D+02 0.109062500000D+03 0.367158150754D-08-0.171993402972D+01
    0.563450157642D-05 0.134131152881D-01 0.129211694002D-04 0.515376163292D+04
    0.266400000000D+06 0.214204192162D-06 0.736682198456D-01 0.311061739922D-06
    0.983918325039D+00 0.144000000000D+03-0.163648236821D+01-0.756495796801D-08
   -0.571452374714D-11 0.100000000000D+01 0.212300000000D+04 0.000000000000D+00
    0.200000000000D+01 0.000000000000D+00-0.111758708954D-07 0.860000000000D+02
    0.259273000000D+06 0.400000000000D+01 0.000000000000D+00 0.000000000000D+00
18 20  9 16  2  0  0.0 0.290937721729D-03 0.693489710102D-11 0.000000000000D+00
    0.120000000000D+02 0.722500000000D+02 0.469340978507D-08 0.293367952798D+01
    0.376440584660D-05 0.102133757900D-02 0.204145908356D-05 0.515371057510D+04
    0.266400000000D+06-0.130385160446D-07 0.108581130511D+01 0.353902578354D-07
    0.964844750845D+00 0.341781250000D+03 0.274213944443D+01-0.846999566646D-08
    0.298583865788D-09 0.100000000000D+01 0.212300000000D+04 0.000000000000D+00
    0.200000000000D+01 0.000000000000D+00-0.838190317154D-08 0.524000000000D+03
    0.259218000000D+06 0.400000000000D+01 0.000000000000D+00 0.000000000000D+00
19 20  9 16  2  0  0.0-0.104329083115D-03 0.511590769747D-11 0.000000000000D+00
    0.810000000000D+02 0.100906250000D+03 0.376694262257D-08 0.875411511352D+00
    0.505149364471D-05 0.924678612500D-02 0.129081308842D-04 0.515370492935D+04
    0.266400000000D+06-0.260770320892D-07 0.119098950618D+00-0.145286321640D-06
    0.982203831864D+00 0.148156250000D+03 0.171923531372D+01-0.779496754883D-08
    0.160720980388D-10 0.100000000000D+01 0.212300000000D+04 0.000000000000D+00
    0.200000000000D+01 0.000000000000D+00-0.153668224812D-07 0.810000000000D+02
    0.262147000000D+06 0.400000000000D+01 0.000000000000D+00 0.000000000000D+00
20 20  9 16  2  0  0.0 0.526719260961D-03-0.113686837722D-12 0.000000000000D+00
    0.900000000000D+02-0.113312500000D+03 0.526593363299D-08 0.199690685553D+01
   -0.593811273575D-05 0.559616892133D-02 0.346638262272D-05 0.515366388321D+04
    0.266400000000D+06 0.111758708954D-07 0.197291904692D+01 0.372529029846D-07
    0.934998501001D+00 0.298718750000D+03 0.270598864964D+01-0.864428864075D-08
   -0.353586156854D-09 0.100000000000D+01 0.212300000000D+04 0.000000000000D+00
    0.200000000000D+01 0.000000000000D+00-0.884756445885D-08 0.900000000000D+02
    0.259218000000D+06 0.400000000000D+01 0.000000000000D+00 0.000000000000D+00
21 20  9 16  2  0  0.0 0.475812703371D-04 0.420641299570D-11 0.000000000000D+00
    0.770000000000D+02 0.714687500000D+02 0.497449292188D-08-0.648621913432D+00
    0.391341745853D-05 0.238068961771D-01 0.300072133541D-05 0.515503130150D+04
    0.266400000000D+06-0.333413481712D-06 0.993289759237D+00 0.119209289551D-06
    0.954218532312D+00 0.325281250000D+03-0.128899079646D+01-0.892322883116D-08
    0.510378402166D-09 0.100000000000D+01 0.212300000000D+04 0.000000000000D+00
    0.280000000000D+01 0.000000000000D+00-0.102445483208D-07 0.770000000000D+02
    0.259218000000D+06 0.400000000000D+01 0.000000000000D+00 0.000000000000D+00
22 20  9 16  2  0  0.0-0.753981992602D-03 0.397903932026D-11 0.000000000000D+00
    0.106000000000D+03-0.118375000000D+03 0.524378985347D-08-0.259328875433D+01
   -0.605173408985D-05 0.675798079465D-02 0.466778874397D-05 0.515373490143D+04
    0.266400000000D+06 0.931322574616D-08 0.202003521878D+01 0.115483999252D-06
    0.931727285976D+00 0.268593750000D+03-0.109072192904D+01-0.856535678149D-08
   -0.316441752498D-09 0.100000000000D+01 0.212300000000D+04 0.000000000000D+00
    0.200000000000D+01 0.000000000000D+00-0.181607902050D-07 0.106000000000D+03
    0.260148000000D+06 0.400000000000D+01 0.000000000000D+00 0.000000000000D+00
23 20  9 16  2  0  0.0 0.610523857176D-04 0.477484718431D-11 0.000000000000D+00
    0.530000000000D+02-0.123593750000D+03 0.459126267309D-08 0.271976675151D+01
   -0.651739537716D-05 0.101235508919D-02 0.525824725628D-05 0.515364306259D+04
    0.266400000000D+06-0.223517417908D-07 0.208536077816D+01-0.204890966415D-07
    0.961450375673D+00 0.278656250000D+03 0.184438236851D+01-0.828998816843D-08
   -0.323227749447D-09 0.100000000000D+01 0.212300000000D+04 0.000000000000D+00
   -0.100000000000D+01 0.630000000000D+02-0.838190317154D-08 0.821000000000D+03
    0.259218000000D+06 0.400000000000D+01 0.000000000000D+00 0.000000000000D+00
